[{"OBJECT_NAME":"LYNK TOWER 6","OBJECT_ID":"2024-043AB","EPOCH":"2026-03-09T21:28:38.303328","MEAN_MOTION":15.29548678,"ECCENTRICITY":0.00097492,"INCLINATION":97.5426,"RA_OF_ASC_NODE":204.1954,"ARG_OF_PERICENTER":232.0253,"MEAN_ANOMALY":128.0107,"EPHEMERIS_TYPE":0,"CLASSIFICATION_TYPE":"U","NORAD_CAT_ID":59123,"ELEMENT_SET_NO":999,"REV_AT_EPOCH":11184,"BSTAR":0.00040142146,"MEAN_MOTION_DOT":0.0001144,"MEAN_MOTION_DDOT":0},{"OBJECT_NAME":"STARLINK-35318","OBJECT_ID":"2025-240A","EPOCH":"2026-03-09T10:02:30.052032","MEAN_MOTION":15.30199953,"ECCENTRICITY":0.00014143,"INCLINATION":53.159,"RA_OF_ASC_NODE":64.3109,"ARG_OF_PERICENTER":85.1595,"MEAN_ANOMALY":274.9567,"EPHEMERIS_TYPE":0,"CLASSIFICATION_TYPE":"U","NORAD_CAT_ID":66146,"ELEMENT_SET_NO":999,"REV_AT_EPOCH":2199,"BSTAR":0.0011580887,"MEAN_MOTION_DOT":0.00034098,"MEAN_MOTION_DDOT":0}]
